{"fetched_at":"2026-03-30T06:02:59Z","count":15439,"tles":[{"name":"STARLINK-5833","line1":"1 55773U 23028AJ  26087.66672040  .00000435  00000+0  44254-4 0  9990","line2":"2 55773  70.0008 176.6892 0003339 269.2882  90.7895 14.98337089169374","category":"Starlink"}]}